SL-16 R/B               
1 24298U 96051B   26197.13811816  .00000157  00000+0  11131-3 0  9992
2 24298  70.7646 263.3816 0017863 296.8695  63.0598 14.12456869539785
ORBVIEW 2 (SEASTAR)     
1 24883U 97037A   26197.08439705  .00000087  00000+0  46439-4 0  9996
2 24883  98.8714   4.9081 0003072  59.1766 300.9720 14.35567014526899
SL-16 R/B               
1 25400U 98043G   26196.84882176 -.00000003  00000+0  17664-4 0  9994
2 25400  98.8379 151.2572 0009993   9.6080 350.5289 14.26072774457258
SL-16 R/B               
1 25407U 98045B   26197.19518412 -.00000156  00000+0 -54425-4 0  9997
2 25407  71.0108 271.3256 0008131 205.1437 154.9291 14.16205112445296
ISS (ZARYA)             
1 25544U 98067A   26196.76640667  .00004078  00000+0  82095-4 0  9992
2 25544  51.6311 158.6576 0006718 300.0875  59.9447 15.49019038576187
CZ-4B R/B               
1 25732U 99025C   26197.12492170  .00000004  00000+0  22978-4 0  9990
2 25732  98.6471 238.2330 0036586 337.0233  42.5941 14.18287818406379
OKEAN-O                 
1 25860U 99039A   26197.13944925  .00000257  00000+0  40429-4 0  9999
2 25860  97.9301 255.6027 0000870  89.6470 270.4842 14.80497993453393
SL-16 R/B               
1 25861U 99039B   26197.13437154  .00000222  00000+0  34839-4 0  9991
2 25861  97.9823 255.9126 0014379 195.3328 164.7451 14.81871285455880
DELTA 2 R/B             
1 25876U 99041E   26197.19570250  .00001134  00000+0  22098-3 0  9997
2 25876  51.7611 147.8987 0501403   7.7110 353.1177 14.12087336381187
HELIOS 1B               
1 25977U 99064A   26197.16048332  .00000619  00000+0  73735-4 0  9994
2 25977  98.1583 103.1360 0001874  53.1847 306.9540 14.88076280704369
TERRA                   
1 25994U 99068A   26197.19671882  .00000172  00000+0  43981-4 0  9996
2 25994  97.9441 245.5905 0003454 120.6874 331.5676 14.61124131413844
SL-16 R/B               
1 26070U 00006B   26197.10257148 -.00000095  00000+0 -23781-4 0  9994
2 26070  71.0002 187.8250 0017216 338.7264  21.3141 14.15837952366730
TITAN 4B R/B            
1 26474U 00047B   26197.13386531  .00001177  00000+0  78411-4 0  9999
2 26474  67.9873  39.0846 0045807 257.8329 101.7688 15.10335460412304
ENVISAT                 
1 27386U 02009A   26196.89689769  .00000017  00000+0  19313-4 0  9991
2 27386  98.3846 147.5774 0001324  83.1983 345.7951 14.39070823277617
IDEFIX & ARIANE 42P R/B 
1 27422U 02021B   26196.79549863  .00000088  00000+0  49884-4 0  9999
2 27422  98.5942 133.9694 0011926 164.7365 195.4180 14.31093901262348
AQUA                    
1 27424U 02022A   26195.50499725  .00000358  00000+0  80864-4 0  9994
2 27424  98.4295 165.3370 0000927 111.8770   0.7592 14.62196472287266
CZ-4B R/B               
1 27432U 02024C   26197.17123052  .00000001  00000+0  23215-4 0  9999
2 27432  98.8685 249.8008 0050420  19.2374  48.5191 14.14568339247401
MIDORI II (ADEOS-II)    
1 27597U 02056A   26196.90856752  .00000088  00000+0  52232-4 0  9992
2 27597  98.7895 156.4153 0001445  40.1174 320.0114 14.29363216228611
H-2A R/B                
1 27601U 02056E   26197.17167983  .00000111  00000+0  53079-4 0  9996
2 27601  98.3329 152.7922 0070936 138.0427 233.0431 14.33834172232526
CZ-4B R/B               
1 28059U 03049C   26196.90565150  .00000124  00000+0  40044-4 0  9997
2 28059  98.6910 196.8971 0047691 199.0637 160.8775 14.55116335205243
CZ-2C R/B               
1 28222U 04012C   26197.19166957  .00099037  00000+0  41106-3 0  9994
2 28222  97.7046 276.3698 0011157 187.7372 172.3727 15.85417619224488
SL-16 R/B               
1 28353U 04021B   26196.79961441 -.00000042  00000+0  27380-5 0  9994
2 28353  71.0029 323.6400 0006286 224.6358 135.4259 14.14616500140958
CZ-4B R/B               
1 28415U 04035C   26197.08997537  .00003958  00000+0  13309-3 0  9998
2 28415  97.3353 229.8433 0029309 229.3035 130.5659 15.30998816199547
CZ-2C R/B               
1 28480U 04046B   26197.14983722  .00000060  00000+0  37105-4 0  9992
2 28480  98.1915 104.1165 0140183 134.5884 226.6840 14.27033343126822
ARIANE 5 R/B            
1 28499U 04049H   26197.09470253  .00000205  00000+0  29666-4 0  9993
2 28499  98.2741  10.4690 0082611 295.3328  63.9347 14.85479437164853
CZ-2D R/B               
1 28738U 05024B   26197.00625029  .00043037  00000+0  31860-3 0  9995
2 28738  97.3469 217.9427 0002536 190.6188 169.5022 15.72821571159862
ALOS (DAICHI)           
1 28931U 06002A   26196.88176931  .00000455  00000+0  84053-4 0  9995
2 28931  98.1338 152.3631 0000828 101.2889 258.8410 14.70102533 92314
H-2A R/B                
1 28932U 06002B   26197.05332527  .00005014  00000+0  23929-3 0  9991
2 28932  98.2594 355.5062 0050849 163.1193 197.1745 15.18453795113905
RESURS-DK 1             
1 29228U 06021A   26197.18580834  .00000854  00000+0  53925-4 0  9998
2 29228  69.9306 264.4811 0007162 269.9586  90.0759 15.13320706106965
CZ-4B R/B               
1 29507U 06046C   26197.12714139  .00002238  00000+0  11212-3 0  9996
2 29507  97.5435 241.6456 0032696 178.9006 181.2305 15.17985467 79529
CZ-2C R/B               
1 31114U 07010B   26197.22556392  .00000030  00000+0  33132-4 0  9995
2 31114  98.4120 304.1594 0057764 280.7099  78.7578 14.20281936997964
